{
    "links": {
        "self": "http://www.neowsapp.com/rest/v1/neo/3827341?api_key=iIulBulltgU6a56xZRHN4H3l9WmuAYTsLGpBGhQ2"
    },
    "id": "3827341",
    "neo_reference_id": "3827341",
    "name": "(2018 RC3)",
    "designation": "2018 RC3",
    "nasa_jpl_url": "http://ssd.jpl.nasa.gov/sbdb.cgi?sstr=3827341",
    "absolute_magnitude_h": 24.7,
    "estimated_diameter": {
        "kilometers": {
            "estimated_diameter_min": 0.0305179233,
            "estimated_diameter_max": 0.0682401509
        },
        "meters": {
            "estimated_diameter_min": 30.5179232594,
            "estimated_diameter_max": 68.2401509401
        },
        "miles": {
            "estimated_diameter_min": 0.0189629525,
            "estimated_diameter_max": 0.0424024508
        },
        "feet": {
            "estimated_diameter_min": 100.1244233463,
            "estimated_diameter_max": 223.8850168104
        }
    },
    "is_potentially_hazardous_asteroid": false,
    "close_approach_data": [
        {
            "close_approach_date": "2018-09-10",
            "close_approach_date_full": "2018-Sep-10 06:02",
            "epoch_date_close_approach": 1536559320000,
            "relative_velocity": {
                "kilometers_per_second": "13.0746149037",
                "kilometers_per_hour": "47068.6136532595",
                "miles_per_hour": "29246.606078049"
            },
            "miss_distance": {
                "astronomical": "0.0591834997",
                "lunar": "23.0223813833",
                "kilometers": "8853725.494265639",
                "miles": "5501449.9165142582"
            },
            "orbiting_body": "Earth"
        },
        {
            "close_approach_date": "2112-01-03",
            "close_approach_date_full": "2112-Jan-03 20:09",
            "epoch_date_close_approach": 4481294940000,
            "relative_velocity": {
                "kilometers_per_second": "20.3173035699",
                "kilometers_per_hour": "73142.2928516198",
                "miles_per_hour": "45447.7763554968"
            },
            "miss_distance": {
                "astronomical": "0.395277221",
                "lunar": "153.762838969",
                "kilometers": "59132630.32111927",
                "miles": "36743312.671495126"
            },
            "orbiting_body": "Earth"
        }
    ],
    "orbital_data": {
        "orbit_id": "2",
        "orbit_determination_date": "2018-09-11 07:12:33",
        "first_observation_date": "2018-09-08",
        "last_observation_date": "2018-09-11",
        "data_arc_in_days": 3,
        "observations_used": 40,
        "orbit_uncertainty": "8",
        "minimum_orbit_intersection": ".012097",
        "jupiter_tisserand_invariant": "3.723",
        "epoch_osculation": "2458370.5",
        "eccentricity": ".5198267823827293",
        "semi_major_axis": "1.924089889697682",
        "inclination": "11.30107961842181",
        "ascending_node_longitude": "170.6406645027251",
        "orbital_period": "974.8470082738107",
        "perihelion_distance": ".9238964333209954",
        "perihelion_argument": "224.7615989859182",
        "aphelion_distance": "2.924283346074368",
        "perihelion_time": "2458407.132615072609",
        "mean_anomaly": "346.471988615433",
        "mean_motion": ".3692887160185906",
        "equinox": "J2000",
        "orbit_class": {
            "orbit_class_type": "APO",
            "orbit_class_description": "Near-Earth asteroid orbits which cross the Earth’s orbit similar to that of 1862 Apollo",
            "orbit_class_range": "a (semi-major axis) > 1.0 AU; q (perihelion) < 1.017 AU"
        }
    },
    "is_sentry_object": false
}